{"type":"FeatureCollection","features":[{"type":"Feature","id":"682","properties":{"name":"Saudi Arabia"},"geometry":{"type":"MultiPolygon","coordinates":[[[[36.90216902169021,25.382733552335537],[36.87696876968769,25.382733552335537],[36.8049680496805,25.45043768703313],[36.76536765367655,25.500781787192892],[36.72216722167224,25.533765852814795],[36.53136531365314,25.601469987512388],[36.502565025650256,25.644870073857007],[36.534965349653504,25.68827016020161],[36.552965529655296,25.644870073857007],[36.58896588965891,25.62056602550402],[36.74736747367476,25.558069901167784],[36.9237692376924,25.426133638680156],[36.95616956169562,25.413981614503655],[36.90216902169021,25.382733552335537]]],[[[41.989019890198904,16.71486830758934],[42.064620646206464,16.709660297227984],[42.032220322203216,16.742644362849887],[42.025020250202516,16.75826839393396],[42.0610206102061,16.80340448373235],[42.16902169021691,16.707924293774198],[42.165421654216544,16.596820072731987],[42.158221582215816,16.570780020925227],[42.12942129421296,16.5950840692782],[42.107821078210776,16.617652114177403],[42.100621006210076,16.643692165984177],[42.07182071820719,16.671468221244723],[41.963819638196384,16.65410818670688],[41.899018990189916,16.683620245421224],[41.8018180181802,16.779100435379362],[41.77661776617768,16.84680457007697],[41.81621816218163,16.860692597707242],[41.85941859418594,16.893676663329146],[41.88461884618846,16.947492770396465],[41.85941859418594,17.00304488091757],[41.91701917019171,16.994364863648656],[41.949419494194956,16.937076749673764],[41.95301953019532,16.806876490639922],[41.963819638196384,16.779100435379362],[41.94581945819459,16.74958837666503],[41.989019890198904,16.71486830758934]]],[[[51.97911979119792,18.99597684586223],[51.74151741517417,18.9647287836941],[51.51471514715149,18.93348072152598],[51.25911259112593,18.898760652450292],[50.94950949509496,18.85709656955946],[50.70830708307085,18.825848507391342],[50.35550355503557,18.777240410685366],[50.03870038700387,18.735576327794547],[49.74349743497436,18.6956482483575],[49.44469444694448,18.655720168920453],[49.19269192691928,18.621000099844764],[49.04149041490416,18.581072020407717],[48.86508865088652,18.49600785117228],[48.59148591485916,18.362335585230866],[48.31428314283144,18.226927315835667],[48.173881738817386,18.15748717768429],[48.022680226802265,17.9769428184907],[47.947079470794705,17.886670638893904],[47.80667806678068,17.721750310784373],[47.70227702277023,17.59675806211189],[47.579875798757996,17.449197768540202],[47.52587525875259,17.31552550259879],[47.4430744307443,17.112413098505996],[47.37107371073711,17.060332994892462],[47.252272522725235,16.994364863648656],[47.14427144271443,16.947492770396465],[46.975069750697514,16.952700780757823],[46.88146881468816,17.079429032884093],[46.77706777067772,17.21136529537172],[46.72666726667268,17.26518140243904],[46.683466834668366,17.268653409346612],[46.514265142651425,17.251293374808768],[46.3090630906309,17.23046133336335],[46.071460714607156,17.253029378262553],[45.794257942579435,17.279069430069313],[45.535055350553506,17.301637474968516],[45.40545405454054,17.31899750950636],[45.23625236252363,17.405797682195583],[45.19305193051932,17.423157716733428],[45.14625146251464,17.426629723641],[44.948249482494845,17.43010173054857],[44.746647466474684,17.431837734002357],[44.54504545045452,17.404061678741797],[44.35424354243543,17.414477699464513],[44.15624156241563,17.398853668380454],[44.084240842408434,17.365869602758536],[44.008640086400874,17.367605606212322],[43.958239582395834,17.33809354749799],[43.918639186391886,17.324205519867718],[43.86463864638648,17.350245571674478],[43.80343803438035,17.34330155785935],[43.71343713437136,17.365869602758536],[43.65223652236523,17.421421713279642],[43.598235982359824,17.471765813439404],[43.540635406354085,17.49954186869995],[43.47583475834759,17.51516589978401],[43.41823418234182,17.516901903237795],[43.346233462334624,17.485653841069677],[43.30303303033031,17.456141782355346],[43.19143191431914,17.358925588943407],[43.1878318783188,17.324205519867718],[43.238232382323844,17.266917405892826],[43.22023220232202,17.239141350632266],[43.155431554315555,17.204421281556577],[43.13743137431376,17.112413098505996],[43.12663126631267,17.06206899834625],[43.11583115831158,16.942284760035122],[43.14463144631446,16.84680457007697],[43.18423184231844,16.81208450100128],[43.1878318783188,16.770420418110447],[43.16623166231662,16.688828255782568],[43.105031050310515,16.664524207429594],[43.0618306183062,16.586404052009286],[43.03303033030332,16.54994797947981],[42.98622986229864,16.508283896588978],[42.79902799027991,16.371139623740007],[42.78822788227882,16.450995782614086],[42.73062730627308,16.56904401747144],[42.727027270272714,16.65410818670688],[42.69822698226983,16.737436352488544],[42.64782647826479,16.801668480278565],[42.55422554225544,16.867636611522386],[42.543425434254345,16.959644794572966],[42.47502475024751,17.04991697416976],[42.3850238502385,17.12282911922871],[42.33102331023312,17.25650138517011],[42.29502295022951,17.43530974090993],[42.0538205382054,17.66967020717084],[41.75141751417516,17.884934635440118],[41.65781657816578,18.008190880658816],[41.50661506615066,18.256439374550013],[41.4310143101431,18.45260776482766],[41.22941229412294,18.678288213819656],[41.22221222212224,18.76508838650888],[41.18981189811899,18.870984597189732],[41.14301143011431,18.989032832047087],[41.11781117811179,19.082777018551454],[40.91260912609127,19.490737830190824],[40.8478084780848,19.554969957980845],[40.79020790207903,19.646978141031425],[40.775807758077576,19.716418279182804],[40.757807578075784,19.754610355166065],[40.617406174061756,19.822314489863658],[40.48060480604806,19.994178831788332],[40.081000810008106,20.266731374032503],[39.88299882998831,20.292771425839277],[39.728197281972825,20.3899876192512],[39.61299612996132,20.518451874831257],[39.49059490594908,20.737188310008122],[39.274592745927464,20.973284779722817],[39.09459094590946,21.31006944975701],[39.15219152191523,21.43332569497572],[39.148591485914864,21.51838986421116],[39.090990909909095,21.66421415432906],[39.02979029790299,21.77531837537127],[38.98658986589868,21.881214586052124],[39.02259022590226,22.033982889985168],[39.033390333903355,22.204111228456057],[39.06939069390694,22.294383408052852],[39.09459094590946,22.393335604918562],[39.06219062190624,22.592976002103782],[39.00099000990011,22.69887221278465],[39.008190081900835,22.770048354389814],[38.939789397893975,22.804768423465504],[38.882188821888235,22.882888578885797],[38.939789397893975,22.881152575432026],[38.83538835388356,22.988784789566665],[38.79578795787958,23.04780890699533],[38.756187561875635,23.193633197113243],[38.705787057870594,23.30473741815544],[38.54378543785438,23.558193922407995],[38.46458464584646,23.71269822979481],[38.28818288182882,23.910602623526245],[38.09738097380975,24.05816291709793],[37.978579785797876,24.124131048341752],[37.92097920979211,24.1848911692242],[37.82017820178203,24.188363176131773],[37.71217712177122,24.27516334882101],[37.63657636576366,24.276899352274782],[37.54297542975431,24.29078737990507],[37.431374313743135,24.459179714922172],[37.33777337773378,24.615420025762774],[37.179371793717934,24.82026843330935],[37.21897218972191,24.87408454037667],[37.265772657726586,24.960884713065894],[37.24417244172443,25.07372493756189],[37.21897218972191,25.150109089528414],[37.15057150571508,25.290725369284957],[36.92016920169203,25.641398066949435],[36.8589685896859,25.691742167109183],[36.761767617676185,25.75076628453786],[36.704167041670416,25.903534588470905],[36.67536675366753,26.03894285786609],[36.51696516965171,26.10491098910991],[36.250562505625055,26.594463963077146],[36.092160921609235,26.76632830500182],[36.0309603096031,26.88090453295159],[35.8509585095851,27.07012890941411],[35.764557645576474,27.259353285876628],[35.580955809558105,27.432953631255074],[35.42255422554226,27.733282228759805],[35.18135181351815,28.035346829718307],[35.076950769507704,28.087426933331855],[34.82854828548287,28.108258974777257],[34.72054720547206,28.13082701967646],[34.62334623346234,28.064858888432653],[34.616146161461614,28.148187054214304],[34.684546845468475,28.264499285617873],[34.77814778147783,28.507539769147712],[34.79974799747998,28.721068193963205],[34.9509495094951,29.352973451140784],[35.163351633516356,29.321725388972652],[35.339753397534,29.293949333712106],[35.59535595355953,29.25402125427506],[35.86175861758619,29.214093174838013],[36.016560165601675,29.189789126485024],[36.066960669606715,29.20020514720774],[36.2829628296283,29.354709454594555],[36.477364773647736,29.495325734351113],[36.59256592565927,29.665454072822],[36.704167041670416,29.832110404385304],[36.75456754567546,29.866830473461008],[36.92736927369273,29.89634253217534],[37.20097200972012,29.946686632335087],[37.47097470974711,29.995294729041063],[37.4889748897489,30.010918760125122],[37.5537755377554,30.14459102606652],[37.632976329763295,30.312983361083624],[37.650976509765115,30.33034339562147],[37.66897668976691,30.347703430159314],[37.86337863378634,30.443183620117466],[37.978579785797876,30.500471734092358],[37.8129781297813,30.66886406910946],[37.65457654576548,30.828576386857634],[37.47817478174784,31.007384742597438],[37.330573305733054,31.14626501890021],[37.10377103771037,31.354585433354345],[36.95976959769598,31.49172970620333],[37.215372153721546,31.55596183399335],[37.49257492574927,31.625401972144743],[37.77337773377735,31.696578113749908],[38.11178111781118,31.781642282985345],[38.37458374583747,31.847610414229152],[38.77058770587706,31.946562611094876],[38.96138961389616,31.99517070780084],[38.99738997389974,32.00732273197734],[39.1449914499145,32.12537096683468],[39.368193681936816,32.09238690121278],[39.702997029970305,32.04204280105303],[40.0270002700027,31.99517070780084],[40.36900369003692,31.939618597279733],[40.48060480604806,31.892746504027556],[40.808208082080824,31.72609017246424],[41.02421024210244,31.616721954875814],[41.27261272612728,31.488257699295758],[41.58581585815858,31.33028138500137],[41.798217982179835,31.220913167412945],[42.075420754207556,31.080296887656388],[42.28782287822878,30.920584569908215],[42.56142561425614,30.717472165815423],[42.85662856628568,30.495263723731],[43.10143101431015,30.321663378352554],[43.439834398344004,30.083830905184072],[43.774637746377465,29.84947043892315],[44.09864098640986,29.61858197956981],[44.361443614436155,29.43456561346865],[44.689046890468916,29.201941150661526],[44.7178471784718,29.193261133392596],[45.049050490504925,29.167221081585836],[45.49905499054992,29.13076500905636],[45.94905949059492,29.096044939980672],[46.355863558635605,29.063060874358754],[46.532265322653245,29.096044939980672],[46.723067230672314,29.075212898535256],[46.98226982269824,29.04570083982091],[47.13707137071373,29.02660480182928],[47.43227432274324,28.990148729299804],[47.52227522275223,28.837380425366774],[47.554675546755476,28.731484214685906],[47.58347583475836,28.62732400745884],[47.669876698766984,28.533579820954472],[47.871478714787145,28.535315824408258],[48.047880478804785,28.537051827862044],[48.267482674826766,28.540523834769616],[48.44388443884441,28.5422598382234],[48.49788497884978,28.448515651719035],[48.5230852308523,28.354771465214668],[48.62748627486275,28.132563023130245],[48.7750877508775,27.9589626777518],[48.80748807488075,27.89646655341555],[48.83268832688327,27.800986363457397],[48.80748807488075,27.764530290927922],[48.79668796687969,27.724602211490875],[48.90468904689047,27.629122021532737],[49.08829088290884,27.549265862658643],[49.15669156691567,27.528433821213227],[49.23589235892359,27.49197774868375],[49.17469174691749,27.438161641616432],[49.28269282692827,27.309697386036376],[49.405094050940505,27.18123313045632],[49.538295382953834,27.15172107174199],[49.71829718297184,26.955552681464326],[49.98469984699847,26.828824429338056],[50.150301503015044,26.66216809777474],[50.13590135901359,26.65869609086718],[50.08550085500855,26.676056125405026],[50.02790027900281,26.698624170304214],[50.00990009900099,26.677792128858798],[50.00990009900099,26.60835199070742],[50.02790027900281,26.526759828379554],[50.11070110701107,26.45558368677439],[50.18630186301863,26.405239586614627],[50.21510215102151,26.308023393202703],[50.15390153901541,26.099702978748553],[50.13590135901359,26.10143898220234],[50.09630096300964,26.118799016740184],[50.05310053100533,26.122271023647755],[50.03150031500317,26.110118999471254],[50.08190081900821,25.960822702445796],[50.12870128701289,25.846246474496013],[50.18990189901899,25.755974294899218],[50.24030240302403,25.622302028957805],[50.27990279902801,25.5667499184367],[50.45630456304565,25.42439763522637],[50.50670506705069,25.306349400369015],[50.55710557105573,25.08587696173838],[50.66510665106651,24.964356719973466],[50.72630726307264,24.868876530015314],[50.805508055080566,24.789020371141234],[50.855908559085606,24.679652153552794],[50.9279092790928,24.594587984317357],[50.96750967509675,24.57375594287194],[51.021510215102154,24.565075925603026],[51.09351093510935,24.565075925603026],[51.17631176311764,24.585907967048442],[51.26631266312663,24.606740008493844],[51.33831338313385,24.565075925603026],[51.41031410314105,24.57028393596437],[51.41751417514175,24.530355856527336],[51.37071370713707,24.476539749460017],[51.30951309513097,24.341131480064817],[51.39591395913959,24.318563435165615],[51.475114751147515,24.308147414442914],[51.53631536315365,24.28557936954371],[51.56871568715687,24.28557936954371],[51.56871568715687,24.25780331428315],[51.57231572315723,24.127603055249324],[51.59391593915939,24.078994958543348],[51.629916299163,24.035594872198743],[51.683916839168404,23.969626740954922],[51.73791737917381,23.903658609711115],[51.79551795517955,23.837690478467294],[51.84951849518495,23.773458350677274],[51.90351903519036,23.707490219433467],[51.961119611196125,23.641522088189646],[52.01512015120153,23.577289960399625],[52.06912069120693,23.511321829155804],[52.12312123121231,23.445353697911997],[52.18072180721808,23.379385566668176],[52.23472234722348,23.315153438878156],[52.288722887228886,23.24918530763435],[52.346323463234654,23.183217176390528],[52.40032400324003,23.11724904514672],[52.454324543245434,23.053016917356686],[52.50832508325084,22.98704878611288],[52.555125551255514,22.93323267904556],[52.6379263792638,22.922816658322844],[52.66672666726669,22.919344651415273],[52.74232742327425,22.910664634146357],[52.857528575285755,22.8950406030623],[53.01233012330124,22.877680568524454],[53.192331923319244,22.85511252362525],[53.393933939339405,22.830808475272264],[53.60993609936099,22.804768423465504],[53.83313833138331,22.776992368204944],[54.056340563405655,22.749216312944398],[54.26874268742688,22.723176261137624],[54.47034470344704,22.69887221278465],[54.65394653946541,22.676304167885448],[54.80514805148053,22.657208129893817],[54.9239492394924,22.643320102263544],[54.99954999549996,22.634640084994615],[55.02475024750248,22.631168078087043],[55.103951039510406,22.620752057364342],[55.118351183511834,22.624224064271914],[55.186751867518694,22.704080223145994],[55.25875258752589,22.591239998649996],[55.319953199531994,22.497495812145644],[55.40275402754028,22.367295553111802],[55.49275492754927,22.230151280262817],[55.57915579155792,22.099951021228975],[55.640356403564056,22.000998824363265],[55.60795607956081,21.900310624043755],[55.571955719557195,21.789206403001543],[55.53595535955361,21.679838185413118],[55.496354963549635,21.568733964370907],[55.46035460354605,21.457629743328695],[55.42435424354244,21.346525522286484],[55.388353883538855,21.235421301244273],[55.35235352353524,21.126053083655847],[55.312753127531295,21.014948862613636],[55.27675276752768,20.903844641571425],[55.24075240752407,20.792740420529213],[55.204752047520486,20.683372202940788],[55.168751687516874,20.57226798189859],[55.13275132751329,20.46116376085638],[55.093150931509314,20.35005953981417],[55.05715057150573,20.240691322225743],[55.02115021150212,20.12958710118353],[54.977949779497806,19.995914835242118],[54.869948699487,19.96119476616643],[54.700747007470085,19.903906652191537],[54.52794527945281,19.846618538216646],[54.35514355143553,19.789330424241754],[54.182341823418255,19.730306306813077],[54.00954009540095,19.6730181928382],[53.84033840338404,19.615730078863308],[53.66753667536676,19.558441964888416],[53.494734947349485,19.501153850913525],[53.32193321933221,19.443865736938633],[53.14913149131493,19.386577622963742],[52.97992979929799,19.32928950898885],[52.807128071280715,19.27200139501396],[52.63432634326344,19.21471328103908],[52.46152461524616,19.15742516706419],[52.29232292322925,19.1001370530893],[52.11952119521197,19.042848939114407],[51.97911979119792,18.99597684586223]]],[[[36.596165961659636,25.7125742085546],[36.585365853658544,25.698686180924327],[36.54216542165423,25.7351422534538],[36.545765457654596,25.811526405420324],[36.58176581765818,25.854926491764928],[36.578165781657816,25.795902374336265],[36.596165961659636,25.7351422534538],[36.596165961659636,25.7125742085546]]]]}},{"type":"Feature","id":"422","properties":{"name":"Lebanon"},"geometry":{"type":"Polygon","coordinates":[[[35.9769597695977,34.62868794719199],[36.149761497614975,34.62868794719199],[36.26496264962651,34.63215995409956],[36.29736297362973,34.67903204735174],[36.383763837638384,34.65820000590632],[36.434164341643424,34.61306391610793],[36.38736387363875,34.56619182285574],[36.326163261632615,34.51411171924221],[36.32976329763298,34.500223691611936],[36.376563765637655,34.49501568125058],[36.45576455764558,34.46550362253625],[36.50616506165062,34.43251955691433],[36.585365853658544,34.22072713555262],[36.534965349653504,34.1339269628634],[36.45576455764558,34.05754281089688],[36.42336423364233,34.05059879708173],[36.3549635496355,34.010670717644686],[36.29736297362973,33.95859061403115],[36.27936279362794,33.92560654840925],[36.2829628296283,33.89435848624113],[36.36216362163623,33.854430406804084],[36.36576365763659,33.838806375720026],[36.34776347763477,33.82665435154354],[36.2829628296283,33.835334368812454],[36.200162001620015,33.838806375720026],[36.149761497614975,33.838806375720026],[36.092160921609235,33.83186236190488],[36.02016020160201,33.78325426519892],[35.98775987759879,33.7520062030308],[35.96975969759697,33.73291016503917],[35.940959409594115,33.66694203379535],[35.973359733597334,33.62354194745075],[36.02736027360274,33.59750189564397],[36.03456034560347,33.585349871467486],[36.023760237602374,33.56278182656828],[35.966159661596635,33.53500577130772],[35.92655926559266,33.500285702232034],[35.915759157591594,33.465565633156345],[35.86895868958689,33.43258156753444],[35.840158401584034,33.4152215329966],[35.78615786157863,33.37008544319819],[35.73575735757359,33.331893367214946],[35.62775627756278,33.274605253240054],[35.60255602556026,33.239885184164365],[35.580955809558105,33.27113324633248],[35.53415534155343,33.250301204887066],[35.49455494554945,33.120100945853224],[35.41175411754119,33.074964856054834],[35.30735307353075,33.08017286641618],[35.22455224552246,33.09232489059268],[35.10935109351095,33.08364487332375],[35.15615156151563,33.16002902529027],[35.202952029520304,33.25898122215598],[35.24975249752498,33.392653488097395],[35.33615336153363,33.503757709139606],[35.51255512555127,33.88047045861086],[35.61335613356135,34.0315027590901],[35.64935649356494,34.24850319081318],[35.80415804158042,34.43772756727569],[35.922959229592294,34.49327967779679],[35.9769597695977,34.54709578486411],[35.9769597695977,34.62868794719199]]]}},{"type":"Feature","id":"414","properties":{"name":"Kuwait"},"geometry":{"type":"MultiPolygon","coordinates":[[[[48.274682746827466,29.62378998993117],[48.217082170821726,29.601221945031966],[48.181081810818114,29.611637965754667],[48.141481414814166,29.665454072822],[48.08028080280803,29.7991263387634],[48.116281162811646,29.84947043892315],[48.11268112681128,29.870302480368565],[48.11988119881201,29.885926511452624],[48.1378813788138,29.89634253217534],[48.15948159481596,29.95883865651159],[48.18468184681848,29.97967069795699],[48.22788227882279,29.936270611612386],[48.34668346683469,29.783502307679342],[48.34668346683469,29.71927017988932],[48.33948339483396,29.694966131536333],[48.274682746827466,29.62378998993117]]],[[[48.44388443884441,28.5422598382234],[48.267482674826766,28.540523834769616],[48.047880478804785,28.537051827862044],[47.871478714787145,28.535315824408258],[47.669876698766984,28.533579820954472],[47.58347583475836,28.62732400745884],[47.554675546755476,28.731484214685906],[47.52227522275223,28.837380425366774],[47.43227432274324,28.990148729299804],[47.13707137071373,29.02660480182928],[46.98226982269824,29.04570083982091],[46.723067230672314,29.075212898535256],[46.532265322653245,29.096044939980672],[46.69426694266943,29.259229264636417],[46.76986769867699,29.347765440779426],[46.90666906669068,29.536989817241945],[46.975069750697514,29.67239808663713],[47.043470434704346,29.82343038711639],[47.101071010710115,29.939742618519958],[47.11547115471154,29.96057465996536],[47.14787147871479,30.000502739402407],[47.22347223472235,30.04216682229324],[47.33147331473316,30.0803588982765],[47.51507515075153,30.09598292936056],[47.644676446764464,30.097718932814345],[47.67347673476735,30.09598292936056],[47.75267752677527,30.07688689136893],[47.97947979479795,29.983142704864562],[47.972279722797225,29.946686632335087],[48.00468004680047,29.835582411292876],[48.07668076680767,29.71579817298175],[48.1378813788138,29.61858197956981],[48.14508145081453,29.571709886317635],[48.091080910809126,29.578653900132764],[48.047880478804785,29.597749938124394],[47.96867968679689,29.616845976116025],[47.81747817478177,29.486645717082183],[47.72387723877239,29.417205578930805],[47.72387723877239,29.392901530577817],[47.846278462784625,29.36512547531727],[47.93627936279364,29.366861478771057],[47.997479974799745,29.385957516762687],[48.05148051480515,29.354709454594555],[48.08748087480876,29.274853295720476],[48.10188101881019,29.21062116793044],[48.18468184681848,28.979732708577103],[48.25308253082531,28.901612553156795],[48.33948339483396,28.762732276854038],[48.37188371883721,28.691556135248874],[48.389883898839,28.63079601436641],[48.44388443884441,28.5422598382234]]]]}}]}